[{"OBJECT_NAME":"STARLINK-32046","OBJECT_ID":"2024-124R","EPOCH":"2026-03-09T22:35:18.930912","MEAN_MOTION":15.30174691,"ECCENTRICITY":0.00011862,"INCLINATION":53.1618,"RA_OF_ASC_NODE":321.3689,"ARG_OF_PERICENTER":85.8581,"MEAN_ANOMALY":274.2555,"EPHEMERIS_TYPE":0,"CLASSIFICATION_TYPE":"U","NORAD_CAT_ID":60198,"ELEMENT_SET_NO":999,"REV_AT_EPOCH":9556,"BSTAR":1.96104e-6,"MEAN_MOTION_DOT":-3.01e-6,"MEAN_MOTION_DDOT":0},{"OBJECT_NAME":"KUIPER-00213","OBJECT_ID":"2026-030P","EPOCH":"2026-03-09T22:00:01.999584","MEAN_MOTION":15.32626943,"ECCENTRICITY":0.00152813,"INCLINATION":51.8816,"RA_OF_ASC_NODE":218.5142,"ARG_OF_PERICENTER":64.2462,"MEAN_ANOMALY":206.8369,"EPHEMERIS_TYPE":0,"CLASSIFICATION_TYPE":"U","NORAD_CAT_ID":67777,"ELEMENT_SET_NO":999,"REV_AT_EPOCH":502,"BSTAR":0.0016072376,"MEAN_MOTION_DOT":0.00051551,"MEAN_MOTION_DDOT":0}]
